{
  "type": "FeatureCollection",
  "features": [
    {
      "type": "Feature",
      "properties": {
        "norad_id": 63772,
        "name": "BIOMASS",
        "group": "resource",
        "lat": -38.481269545761634,
        "lon": 179.7769626700794,
        "alt_km": 675.7135260355917,
        "timestamp": "2025-12-14T07:33:19.135963+00:00",
        "meta_object_name": "BIOMASS",
        "meta_object_id": "2025-090A",
        "meta_epoch": "2025-12-13T12:05:45.708864",
        "meta_mean_motion": 14.67543484,
        "meta_eccentricity": 0.00011494,
        "meta_inclination": 98.0701,
        "meta_ra_of_asc_node": 172.5025,
        "meta_arg_of_pericenter": 79.7434,
        "meta_mean_anomaly": 280.39,
        "meta_ephemeris_type": 0,
        "meta_classification_type": "U",
        "meta_norad_cat_id": 63772,
        "meta_element_set_no": 999,
        "meta_rev_at_epoch": 3345,
        "meta_bstar": 0.00037658617,
        "meta_mean_motion_dot": 2.088e-05,
        "meta_mean_motion_ddot": 0,
        "tle_line1": "1 63772U 25090A   25347.50400126  .00002088  00000+0  37659-3 0  9990",
        "tle_line2": "2 63772  98.0701 172.5025 0001149  79.7434 280.3900 14.67543484 33456"
      },
      "geometry": {
        "type": "Point",
        "coordinates": [
          179.7769626700794,
          -38.481269545761634
        ]
      }
    },
    {
      "type": "Feature",
      "properties": {
        "norad_id": 64694,
        "name": "GOSAT-GW (IBUKI GW)",
        "group": "resource",
        "lat": 8.993577933136297,
        "lon": 105.08134556380989,
        "alt_km": 670.5737025914987,
        "timestamp": "2025-12-14T07:33:19.135973+00:00",
        "meta_object_name": "GOSAT-GW (IBUKI GW)",
        "meta_object_id": "2025-141A",
        "meta_epoch": "2025-12-13T16:03:09.154944",
        "meta_mean_motion": 14.67560935,
        "meta_eccentricity": 0.00014863,
        "meta_inclination": 98.0422,
        "meta_ra_of_asc_node": 283.165,
        "meta_arg_of_pericenter": 84.9741,
        "meta_mean_anomaly": 275.1633,
        "meta_ephemeris_type": 0,
        "meta_classification_type": "U",
        "meta_norad_cat_id": 64694,
        "meta_element_set_no": 999,
        "meta_rev_at_epoch": 2463,
        "meta_bstar": 0.0003010938,
        "meta_mean_motion_dot": 1.661e-05,
        "meta_mean_motion_ddot": 0,
        "tle_line1": "1 64694U 25141A   25347.66885596  .00001661  00000+0  30109-3 0  9995",
        "tle_line2": "2 64694  98.0422 283.1650 0001486  84.9741 275.1633 14.67560935 24631"
      },
      "geometry": {
        "type": "Point",
        "coordinates": [
          105.08134556380989,
          8.993577933136297
        ]
      }
    },
    {
      "type": "Feature",
      "properties": {
        "norad_id": 64876,
        "name": "IONOSFERA-M 3",
        "group": "resource",
        "lat": -81.15316467875202,
        "lon": 26.018998164851542,
        "alt_km": 829.1159187443609,
        "timestamp": "2025-12-14T07:33:19.135983+00:00",
        "meta_object_name": "IONOSFERA-M 3",
        "meta_object_id": "2025-155A",
        "meta_epoch": "2025-12-13T15:04:27.470208",
        "meta_mean_motion": 14.21441239,
        "meta_eccentricity": 0.00022158,
        "meta_inclination": 98.5783,
        "meta_ra_of_asc_node": 309.469,
        "meta_arg_of_pericenter": 58.7266,
        "meta_mean_anomaly": 301.4129,
        "meta_ephemeris_type": 0,
        "meta_classification_type": "U",
        "meta_norad_cat_id": 64876,
        "meta_element_set_no": 999,
        "meta_rev_at_epoch": 2004,
        "meta_bstar": 7.7519114e-05,
        "meta_mean_motion_dot": 1.27e-06,
        "meta_mean_motion_ddot": 0,
        "tle_line1": "1 64876U 25155A   25347.62809572  .00000127  00000+0  77519-4 0  9991",
        "tle_line2": "2 64876  98.5783 309.4690 0002215  58.7266 301.4129 14.21441239 20045"
      },
      "geometry": {
        "type": "Point",
        "coordinates": [
          26.018998164851542,
          -81.15316467875202
        ]
      }
    },
    {
      "type": "Feature",
      "properties": {
        "norad_id": 64877,
        "name": "IONOSFERA-M 4",
        "group": "resource",
        "lat": 80.9598955293967,
        "lon": -158.37296491129803,
        "alt_km": 812.0674461330591,
        "timestamp": "2025-12-14T07:33:19.135994+00:00",
        "meta_object_name": "IONOSFERA-M 4",
        "meta_object_id": "2025-155B",
        "meta_epoch": "2025-12-13T15:54:57.114720",
        "meta_mean_motion": 14.21442448,
        "meta_eccentricity": 0.00015807,
        "meta_inclination": 98.5782,
        "meta_ra_of_asc_node": 309.4227,
        "meta_arg_of_pericenter": 62.6235,
        "meta_mean_anomaly": 297.5104,
        "meta_ephemeris_type": 0,
        "meta_classification_type": "U",
        "meta_norad_cat_id": 64877,
        "meta_element_set_no": 999,
        "meta_rev_at_epoch": 2004,
        "meta_bstar": 8.1870786e-05,
        "meta_mean_motion_dot": 1.36e-06,
        "meta_mean_motion_ddot": 0,
        "tle_line1": "1 64877U 25155B   25347.66316105  .00000136  00000+0  81871-4 0  9997",
        "tle_line2": "2 64877  98.5782 309.4227 0001580  62.6235 297.5104 14.21442448 20046"
      },
      "geometry": {
        "type": "Point",
        "coordinates": [
          -158.37296491129803,
          80.9598955293967
        ]
      }
    },
    {
      "type": "Feature",
      "properties": {
        "norad_id": 64899,
        "name": "MICROCARB",
        "group": "resource",
        "lat": 5.772423150346504,
        "lon": -115.55019032614352,
        "alt_km": 646.7110052963435,
        "timestamp": "2025-12-14T07:33:19.136004+00:00",
        "meta_object_name": "MICROCARB",
        "meta_object_id": "2025-156A",
        "meta_epoch": "2025-12-13T16:05:09.690720",
        "meta_mean_motion": 14.7205901,
        "meta_eccentricity": 0.00171983,
        "meta_inclination": 98.0025,
        "meta_ra_of_asc_node": 63.0008,
        "meta_arg_of_pericenter": 141.8981,
        "meta_mean_anomaly": 218.3446,
        "meta_ephemeris_type": 0,
        "meta_classification_type": "U",
        "meta_norad_cat_id": 64899,
        "meta_element_set_no": 999,
        "meta_rev_at_epoch": 2067,
        "meta_bstar": 0.00017554077,
        "meta_mean_motion_dot": 1.056e-05,
        "meta_mean_motion_ddot": 0,
        "tle_line1": "1 64899U 25156A   25347.67025105  .00001056  00000+0  17554-3 0  9998",
        "tle_line2": "2 64899  98.0025  63.0008 0017198 141.8981 218.3446 14.72059010 20679"
      },
      "geometry": {
        "type": "Point",
        "coordinates": [
          -115.55019032614352,
          5.772423150346504
        ]
      }
    },
    {
      "type": "Feature",
      "properties": {
        "norad_id": 64900,
        "name": "CO3D 3",
        "group": "resource",
        "lat": 51.332314100082286,
        "lon": -105.94936422879573,
        "alt_km": 499.7555548630635,
        "timestamp": "2025-12-14T07:33:19.136014+00:00",
        "meta_object_name": "CO3D 3",
        "meta_object_id": "2025-156B",
        "meta_epoch": "2025-12-13T16:46:35.865408",
        "meta_mean_motion": 15.2020033,
        "meta_eccentricity": 0.00013843,
        "meta_inclination": 97.4344,
        "meta_ra_of_asc_node": 64.0523,
        "meta_arg_of_pericenter": 93.9049,
        "meta_mean_anomaly": 266.2345,
        "meta_ephemeris_type": 0,
        "meta_classification_type": "U",
        "meta_norad_cat_id": 64900,
        "meta_element_set_no": 999,
        "meta_rev_at_epoch": 2135,
        "meta_bstar": 0.00015817929,
        "meta_mean_motion_dot": 3.358e-05,
        "meta_mean_motion_ddot": 0,
        "tle_line1": "1 64900U 25156B   25347.69902622  .00003358  00000+0  15818-3 0  9999",
        "tle_line2": "2 64900  97.4344  64.0523 0001384  93.9049 266.2345 15.20200330 21357"
      },
      "geometry": {
        "type": "Point",
        "coordinates": [
          -105.94936422879573,
          51.332314100082286
        ]
      }
    },
    {
      "type": "Feature",
      "properties": {
        "norad_id": 64901,
        "name": "CO3D 4",
        "group": "resource",
        "lat": 51.98483429364308,
        "lon": -105.73241463196912,
        "alt_km": 500.5785302987533,
        "timestamp": "2025-12-14T07:33:19.136025+00:00",
        "meta_object_name": "CO3D 4",
        "meta_object_id": "2025-156C",
        "meta_epoch": "2025-12-12T15:30:13.261248",
        "meta_mean_motion": 15.20210943,
        "meta_eccentricity": 0.00010187,
        "meta_inclination": 97.4314,
        "meta_ra_of_asc_node": 63.0114,
        "meta_arg_of_pericenter": 237.4062,
        "meta_mean_anomaly": 122.7075,
        "meta_ephemeris_type": 0,
        "meta_classification_type": "U",
        "meta_norad_cat_id": 64901,
        "meta_element_set_no": 999,
        "meta_rev_at_epoch": 2119,
        "meta_bstar": 5.204221e-05,
        "meta_mean_motion_dot": 1.059e-05,
        "meta_mean_motion_ddot": 0,
        "tle_line1": "1 64901U 25156C   25346.64598682  .00001059  00000+0  52042-4 0  9998",
        "tle_line2": "2 64901  97.4314  63.0114 0001018 237.4062 122.7075 15.20210943 21193"
      },
      "geometry": {
        "type": "Point",
        "coordinates": [
          -105.73241463196912,
          51.98483429364308
        ]
      }
    }
  ]
}